CCSDS_OMM_VERS = 2.0
CREATION_DATE  = 
ORIGINATOR     = 

OBJECT_NAME    = ALOS (DAICHI)
OBJECT_ID      = 2006-002A
CENTER_NAME    = EARTH
REF_FRAME      = TEME
TIME_SYSTEM    = UTC
MEAN_ELEMENT_THEORY = SGP/SGP4

EPOCH          = 2026-03-03T10:39:25.753248
MEAN_MOTION    = 14.69785748
ECCENTRICITY   = .00011588
INCLINATION    = 98.1208
RA_OF_ASC_NODE = 18.4313
ARG_OF_PERICENTER = 51.1627
MEAN_ANOMALY   = 308.9682

EPHEMERIS_TYPE = 0
CLASSIFICATION_TYPE = U
NORAD_CAT_ID   = 28931
ELEMENT_SET_NO = 999
REV_AT_EPOCH   = 7256
BSTAR          = .32361309E-3
MEAN_MOTION_DOT = .1882E-4
MEAN_MOTION_DDOT = 0

CCSDS_OMM_VERS = 2.0
CREATION_DATE  = 
ORIGINATOR     = 

OBJECT_NAME    = H-2A R/B
OBJECT_ID      = 2006-002B
CENTER_NAME    = EARTH
REF_FRAME      = TEME
TIME_SYSTEM    = UTC
MEAN_ELEMENT_THEORY = SGP/SGP4

EPOCH          = 2026-03-03T09:44:51.284832
MEAN_MOTION    = 15.16255084
ECCENTRICITY   = .00519152
INCLINATION    = 98.2397
RA_OF_ASC_NODE = 208.8910
ARG_OF_PERICENTER = 262.6569
MEAN_ANOMALY   = 96.8760

EPHEMERIS_TYPE = 0
CLASSIFICATION_TYPE = U
NORAD_CAT_ID   = 28932
ELEMENT_SET_NO = 999
REV_AT_EPOCH   = 9348
BSTAR          = .59324383E-3
MEAN_MOTION_DOT = .11806E-3
MEAN_MOTION_DDOT = 0

CCSDS_OMM_VERS = 2.0
CREATION_DATE  = 
ORIGINATOR     = 

OBJECT_NAME    = RESURS-DK 1
OBJECT_ID      = 2006-021A
CENTER_NAME    = EARTH
REF_FRAME      = TEME
TIME_SYSTEM    = UTC
MEAN_ELEMENT_THEORY = SGP/SGP4

EPOCH          = 2026-03-03T15:36:29.427840
MEAN_MOTION    = 15.12695462
ECCENTRICITY   = .0002463
INCLINATION    = 69.9303
RA_OF_ASC_NODE = 252.6464
ARG_OF_PERICENTER = 165.4657
MEAN_ANOMALY   = 194.6580

EPHEMERIS_TYPE = 0
CLASSIFICATION_TYPE = U
NORAD_CAT_ID   = 29228
ELEMENT_SET_NO = 999
REV_AT_EPOCH   = 8661
BSTAR          = .20186429E-3
MEAN_MOTION_DOT = .3435E-4
MEAN_MOTION_DDOT = 0

CCSDS_OMM_VERS = 2.0
CREATION_DATE  = 
ORIGINATOR     = 

OBJECT_NAME    = CZ-4B R/B
OBJECT_ID      = 2006-046C
CENTER_NAME    = EARTH
REF_FRAME      = TEME
TIME_SYSTEM    = UTC
MEAN_ELEMENT_THEORY = SGP/SGP4

EPOCH          = 2026-03-03T14:32:55.562496
MEAN_MOTION    = 15.16828303
ECCENTRICITY   = .00317937
INCLINATION    = 97.5603
RA_OF_ASC_NODE = 107.5309
ARG_OF_PERICENTER = 289.5019
MEAN_ANOMALY   = 70.2781

EPHEMERIS_TYPE = 0
CLASSIFICATION_TYPE = U
NORAD_CAT_ID   = 29507
ELEMENT_SET_NO = 999
REV_AT_EPOCH   = 5912
BSTAR          = .33783339E-3
MEAN_MOTION_DOT = .6659E-4
MEAN_MOTION_DDOT = 0

CCSDS_OMM_VERS = 2.0
CREATION_DATE  = 
ORIGINATOR     = 

OBJECT_NAME    = CZ-2C R/B
OBJECT_ID      = 2007-010B
CENTER_NAME    = EARTH
REF_FRAME      = TEME
TIME_SYSTEM    = UTC
MEAN_ELEMENT_THEORY = SGP/SGP4

EPOCH          = 2026-03-03T07:33:29.389536
MEAN_MOTION    = 14.20243536
ECCENTRICITY   = .00580695
INCLINATION    = 98.3976
RA_OF_ASC_NODE = 175.9135
ARG_OF_PERICENTER = 313.4842
MEAN_ANOMALY   = 46.1516

EPHEMERIS_TYPE = 0
CLASSIFICATION_TYPE = U
NORAD_CAT_ID   = 31114
ELEMENT_SET_NO = 999
REV_AT_EPOCH   = 97881
BSTAR          = .89718773E-4
MEAN_MOTION_DOT = .153E-5
MEAN_MOTION_DDOT = 0

CCSDS_OMM_VERS = 2.0
CREATION_DATE  = 
ORIGINATOR     = 

OBJECT_NAME    = COSMO-SKYMED 1
OBJECT_ID      = 2007-023A
CENTER_NAME    = EARTH
REF_FRAME      = TEME
TIME_SYSTEM    = UTC
MEAN_ELEMENT_THEORY = SGP/SGP4

EPOCH          = 2026-03-03T15:31:18.748992
MEAN_MOTION    = 14.96477197
ECCENTRICITY   = .0000817
INCLINATION    = 97.8861
RA_OF_ASC_NODE = 253.6309
ARG_OF_PERICENTER = 89.1585
MEAN_ANOMALY   = 270.9730

EPHEMERIS_TYPE = 0
CLASSIFICATION_TYPE = U
NORAD_CAT_ID   = 31598
ELEMENT_SET_NO = 999
REV_AT_EPOCH   = 1400
BSTAR          = .39207592E-3
MEAN_MOTION_DOT = .4393E-4
MEAN_MOTION_DDOT = 0

CCSDS_OMM_VERS = 2.0
CREATION_DATE  = 
ORIGINATOR     = 

OBJECT_NAME    = COSMOS 2428
OBJECT_ID      = 2007-029A
CENTER_NAME    = EARTH
REF_FRAME      = TEME
TIME_SYSTEM    = UTC
MEAN_ELEMENT_THEORY = SGP/SGP4

EPOCH          = 2026-03-03T12:24:40.912416
MEAN_MOTION    = 14.12944470
ECCENTRICITY   = .00087749
INCLINATION    = 70.9421
RA_OF_ASC_NODE = 216.2987
ARG_OF_PERICENTER = 283.5845
MEAN_ANOMALY   = 76.4298

EPHEMERIS_TYPE = 0
CLASSIFICATION_TYPE = U
NORAD_CAT_ID   = 31792
ELEMENT_SET_NO = 999
REV_AT_EPOCH   = 96322
BSTAR          = .64067995E-4
MEAN_MOTION_DOT = .71E-6
MEAN_MOTION_DDOT = 0

CCSDS_OMM_VERS = 2.0
CREATION_DATE  = 
ORIGINATOR     = 

OBJECT_NAME    = SL-16 R/B
OBJECT_ID      = 2007-029B
CENTER_NAME    = EARTH
REF_FRAME      = TEME
TIME_SYSTEM    = UTC
MEAN_ELEMENT_THEORY = SGP/SGP4

EPOCH          = 2026-03-03T15:08:15.801216
MEAN_MOTION    = 14.14833946
ECCENTRICITY   = .00024224
INCLINATION    = 70.9756
RA_OF_ASC_NODE = 185.1199
ARG_OF_PERICENTER = 278.1048
MEAN_ANOMALY   = 173.1625

EPHEMERIS_TYPE = 0
CLASSIFICATION_TYPE = U
NORAD_CAT_ID   = 31793
ELEMENT_SET_NO = 999
REV_AT_EPOCH   = 96451
BSTAR          = -.556882E-4
MEAN_MOTION_DOT = -.155E-5
MEAN_MOTION_DDOT = 0

CCSDS_OMM_VERS = 2.0
CREATION_DATE  = 
ORIGINATOR     = 

OBJECT_NAME    = KORONAS-FOTON
OBJECT_ID      = 2009-003A
CENTER_NAME    = EARTH
REF_FRAME      = TEME
TIME_SYSTEM    = UTC
MEAN_ELEMENT_THEORY = SGP/SGP4

EPOCH          = 2026-03-03T14:30:21.215808
MEAN_MOTION    = 15.43149492
ECCENTRICITY   = .00108123
INCLINATION    = 82.4281
RA_OF_ASC_NODE = 282.2051
ARG_OF_PERICENTER = 170.4758
MEAN_ANOMALY   = 189.6696

EPHEMERIS_TYPE = 0
CLASSIFICATION_TYPE = U
NORAD_CAT_ID   = 33504
ELEMENT_SET_NO = 999
REV_AT_EPOCH   = 94480
BSTAR          = .35929417E-3
MEAN_MOTION_DOT = .15989E-3
MEAN_MOTION_DDOT = 0

CCSDS_OMM_VERS = 2.0
CREATION_DATE  = 
ORIGINATOR     = 

OBJECT_NAME    = CZ-2C R/B
OBJECT_ID      = 2011-030B
CENTER_NAME    = EARTH
REF_FRAME      = TEME
TIME_SYSTEM    = UTC
MEAN_ELEMENT_THEORY = SGP/SGP4

EPOCH          = 2026-03-03T11:23:07.796256
MEAN_MOTION    = 14.81192139
ECCENTRICITY   = .00529948
INCLINATION    = 97.8532
RA_OF_ASC_NODE = 19.8622
ARG_OF_PERICENTER = 12.2898
MEAN_ANOMALY   = 101.3972

EPHEMERIS_TYPE = 0
CLASSIFICATION_TYPE = U
NORAD_CAT_ID   = 37731
ELEMENT_SET_NO = 999
REV_AT_EPOCH   = 78917
BSTAR          = .29757636E-3
MEAN_MOTION_DOT = .2317E-4
MEAN_MOTION_DDOT = 0

CCSDS_OMM_VERS = 2.0
CREATION_DATE  = 
ORIGINATOR     = 

OBJECT_NAME    = H-2A R/B
OBJECT_ID      = 2012-025E
CENTER_NAME    = EARTH
REF_FRAME      = TEME
TIME_SYSTEM    = UTC
MEAN_ELEMENT_THEORY = SGP/SGP4

EPOCH          = 2026-03-03T12:06:43.079328
MEAN_MOTION    = 14.95099857
ECCENTRICITY   = .00439307
INCLINATION    = 98.4714
RA_OF_ASC_NODE = 29.0557
ARG_OF_PERICENTER = 334.7433
MEAN_ANOMALY   = 25.1637

EPHEMERIS_TYPE = 0
CLASSIFICATION_TYPE = U
NORAD_CAT_ID   = 38341
ELEMENT_SET_NO = 999
REV_AT_EPOCH   = 74729
BSTAR          = .47284549E-3
MEAN_MOTION_DOT = .5215E-4
MEAN_MOTION_DDOT = 0

CCSDS_OMM_VERS = 2.0
CREATION_DATE  = 
ORIGINATOR     = 

OBJECT_NAME    = SHIJIAN-16 (SJ-16)
OBJECT_ID      = 2013-057A
CENTER_NAME    = EARTH
REF_FRAME      = TEME
TIME_SYSTEM    = UTC
MEAN_ELEMENT_THEORY = SGP/SGP4

EPOCH          = 2026-03-03T15:54:00.248832
MEAN_MOTION    = 14.92307762
ECCENTRICITY   = .00156849
INCLINATION    = 74.9730
RA_OF_ASC_NODE = 196.4964
ARG_OF_PERICENTER = 128.3615
MEAN_ANOMALY   = 231.8985

EPHEMERIS_TYPE = 0
CLASSIFICATION_TYPE = U
NORAD_CAT_ID   = 39358
ELEMENT_SET_NO = 999
REV_AT_EPOCH   = 67060
BSTAR          = .2412505E-3
MEAN_MOTION_DOT = .2442E-4
MEAN_MOTION_DDOT = 0

