ALOS (DAICHI)           
1 28931U 06002A   26062.44404807  .00001882  00000+0  32361-3 0  9994
2 28931  98.1208  18.4313 0001158  51.1627 308.9682 14.69785748 72565
H-2A R/B                
1 28932U 06002B   26062.40614913  .00011806  00000+0  59324-3 0  9997
2 28932  98.2397 208.8910 0051915 262.6569  96.8760 15.16255084 93486
RESURS-DK 1             
1 29228U 06021A   26062.65034060  .00003435  00000+0  20186-3 0  9996
2 29228  69.9303 252.6464 0002463 165.4657 194.6580 15.12695462 86618
CZ-4B R/B               
1 29507U 06046C   26062.60619864  .00006659  00000+0  33783-3 0  9997
2 29507  97.5603 107.5309 0031793 289.5019  70.2781 15.16828303 59126
CZ-2C R/B               
1 31114U 07010B   26062.31492349  .00000153  00000+0  89719-4 0  9995
2 31114  98.3976 175.9135 0058069 313.4842  46.1516 14.20243536978814
COSMO-SKYMED 1          
1 31598U 07023A   26062.64674478  .00004393  00000+0  39208-3 0  9993
2 31598  97.8861 253.6309 0000817  89.1585 270.9730 14.96477197 14005
COSMOS 2428             
1 31792U 07029A   26062.51714019  .00000071  00000+0  64068-4 0  9999
2 31792  70.9421 216.2987 0008774 283.5845  76.4298 14.12944470963227
SL-16 R/B               
1 31793U 07029B   26062.63073844 -.00000155  00000+0 -55688-4 0  9990
2 31793  70.9756 185.1199 0002422 278.1048 173.1625 14.14833946964516
KORONAS-FOTON           
1 33504U 09003A   26062.60441222  .00015989  00000+0  35929-3 0  9996
2 33504  82.4281 282.2051 0010812 170.4758 189.6696 15.43149492944808
CZ-2C R/B               
1 37731U 11030B   26062.47439579  .00002317  00000+0  29758-3 0  9996
2 37731  97.8532  19.8622 0052994  12.2898 101.3972 14.81192139789178
H-2A R/B                
1 38341U 12025E   26062.50466527  .00005215  00000+0  47285-3 0  9991
2 38341  98.4714  29.0557 0043930 334.7433  25.1637 14.95099857747298
SHIJIAN-16 (SJ-16)      
1 39358U 13057A   26062.66250288  .00002442  00000+0  24125-3 0  9995
2 39358  74.9730 196.4964 0015684 128.3615 231.8985 14.92307762670605
